{"type": "FeatureCollection", "features": [ {"type": "Feature", "properties": {"norad_id": 34077, "name": "IRIDIUM 33 DEB", "group": "iridium-33-debris", "lat": -30.8546129099606, "lon": -126.14471637030354, "alt_km": 690.9101813265097, "timestamp": "2025-12-12T07:43:20.900134+00:00", "meta": {"OBJECT_NAME": "IRIDIUM 33 DEB", "OBJECT_ID": "1997-051CL", "EPOCH": "2025-12-11T06:28:42.934368", "MEAN_MOTION": 14.64809818, "ECCENTRICITY": 0.00103779, "INCLINATION": 86.386, "RA_OF_ASC_NODE": 52.1546, "ARG_OF_PERICENTER": 44.2381, "MEAN_ANOMALY": 23.4753, "EPHEMERIS_TYPE": 0, "CLASSIFICATION_TYPE": "U", "NORAD_CAT_ID": 34077, "ELEMENT_SET_NO": 999, "REV_AT_EPOCH": 88311, "BSTAR": 0.0029385818, "MEAN_MOTION_DOT": 0.00015729, "MEAN_MOTION_DDOT": 0}, "tle": {"line1": "1 34077U 97051CL  25345.26994137  .00015729  00000+0  29386-2 0  9996", "line2": "2 34077  86.3860  52.1546 0010377  44.2381  23.4753 14.64809818883111"}}, "geometry": {"type": "Point", "coordinates": [-126.14471637030354, -30.8546129099606]}}, {"type": "Feature", "properties": {"norad_id": 34079, "name": "IRIDIUM 33 DEB", "group": "iridium-33-debris", "lat": 5.409985810025247, "lon": -171.49156444770344, "alt_km": 624.5112164347183, "timestamp": "2025-12-12T07:43:20.900145+00:00", "meta": {"OBJECT_NAME": "IRIDIUM 33 DEB", "OBJECT_ID": "1997-051CN", "EPOCH": "2025-12-12T00:45:00.547776", "MEAN_MOTION": 14.83498735, "ECCENTRICITY": 0.00057095, "INCLINATION": 86.378, "RA_OF_ASC_NODE": 8.9842, "ARG_OF_PERICENTER": 10.5537, "MEAN_ANOMALY": 53.393, "EPHEMERIS_TYPE": 0, "CLASSIFICATION_TYPE": "U", "NORAD_CAT_ID": 34079, "ELEMENT_SET_NO": 999, "REV_AT_EPOCH": 88967, "BSTAR": 0.0025106386, "MEAN_MOTION_DOT": 0.00020712, "MEAN_MOTION_DDOT": 0}, "tle": {"line1": "1 34079U 97051CN  25346.03125634  .00020712  00000+0  25106-2 0  9996", "line2": "2 34079  86.3780   8.9842 0005709  10.5537  53.3930 14.83498735889673"}}, "geometry": {"type": "Point", "coordinates": [-171.49156444770344, 5.409985810025247]}}, {"type": "Feature", "properties": {"norad_id": 34088, "name": "IRIDIUM 33 DEB", "group": "iridium-33-debris", "lat": -73.63929191493618, "lon": -136.64689910673755, "alt_km": 600.1887461263341, "timestamp": "2025-12-12T07:43:20.900155+00:00", "meta": {"OBJECT_NAME": "IRIDIUM 33 DEB", "OBJECT_ID": "1997-051CX", "EPOCH": "2025-12-11T21:28:33.153888", "MEAN_MOTION": 14.91323506, "ECCENTRICITY": 0.00056064, "INCLINATION": 86.3847, "RA_OF_ASC_NODE": 31.1121, "ARG_OF_PERICENTER": 179.2406, "MEAN_ANOMALY": 304.0465, "EPHEMERIS_TYPE": 0, "CLASSIFICATION_TYPE": "U", "NORAD_CAT_ID": 34088, "ELEMENT_SET_NO": 999, "REV_AT_EPOCH": 88729, "BSTAR": 0.003721895, "MEAN_MOTION_DOT": 0.00037269, "MEAN_MOTION_DDOT": 0}, "tle": {"line1": "1 34088U 97051CX  25345.89482817  .00037269  00000+0  37219-2 0  9991", "line2": "2 34088  86.3847  31.1121 0005606 179.2406 304.0465 14.91323506887296"}}, "geometry": {"type": "Point", "coordinates": [-136.64689910673755, -73.63929191493618]}}, {"type": "Feature", "properties": {"norad_id": 34091, "name": "IRIDIUM 33 DEB", "group": "iridium-33-debris", "lat": 84.65088176142477, "lon": -156.08794809830854, "alt_km": 638.0747872354932, "timestamp": "2025-12-12T07:43:20.900166+00:00", "meta": {"OBJECT_NAME": "IRIDIUM 33 DEB", "OBJECT_ID": "1997-051DA", "EPOCH": "2025-12-11T16:42:44.021376", "MEAN_MOTION": 14.81703346, "ECCENTRICITY": 0.00332733, "INCLINATION": 86.341, "RA_OF_ASC_NODE": 67.3114, "ARG_OF_PERICENTER": 296.9804, "MEAN_ANOMALY": 62.8021, "EPHEMERIS_TYPE": 0, "CLASSIFICATION_TYPE": "U", "NORAD_CAT_ID": 34091, "ELEMENT_SET_NO": 999, "REV_AT_EPOCH": 87851, "BSTAR": 0.0060351741, "MEAN_MOTION_DOT": 0.00048284, "MEAN_MOTION_DDOT": 0}, "tle": {"line1": "1 34091U 97051DA  25345.69634284  .00048284  00000+0  60352-2 0  9993", "line2": "2 34091  86.3410  67.3114 0033273 296.9804  62.8021 14.81703346878514"}}, "geometry": {"type": "Point", "coordinates": [-156.08794809830854, 84.65088176142477]}}, {"type": "Feature", "properties": {"norad_id": 34097, "name": "IRIDIUM 33 DEB", "group": "iridium-33-debris", "lat": 53.27216367972519, "lon": 6.701641959917967, "alt_km": 732.5569355141815, "timestamp": "2025-12-12T07:43:20.900177+00:00", "meta": {"OBJECT_NAME": "IRIDIUM 33 DEB", "OBJECT_ID": "1997-051DG", "EPOCH": "2025-12-12T00:46:57.892800", "MEAN_MOTION": 14.3476745, "ECCENTRICITY": 0.00826721, "INCLINATION": 86.2008, "RA_OF_ASC_NODE": 1.7198, "ARG_OF_PERICENTER": 4.5012, "MEAN_ANOMALY": 355.6908, "EPHEMERIS_TYPE": 0, "CLASSIFICATION_TYPE": "U", "NORAD_CAT_ID": 34097, "ELEMENT_SET_NO": 999, "REV_AT_EPOCH": 87109, "BSTAR": 0.002167954, "MEAN_MOTION_DOT": 6.405e-05, "MEAN_MOTION_DDOT": 0}, "tle": {"line1": "1 34097U 97051DG  25346.03261450  .00006405  00000+0  21680-2 0  9999", "line2": "2 34097  86.2008   1.7198 0082672   4.5012 355.6908 14.34767450871094"}}, "geometry": {"type": "Point", "coordinates": [6.701641959917967, 53.27216367972519]}}, {"type": "Feature", "properties": {"norad_id": 34145, "name": "IRIDIUM 33 DEB", "group": "iridium-33-debris", "lat": -49.53525840238367, "lon": -31.74146239189149, "alt_km": 790.2747904253838, "timestamp": "2025-12-12T07:43:20.900201+00:00", "meta": {"OBJECT_NAME": "IRIDIUM 33 DEB", "OBJECT_ID": "1997-051DY", "EPOCH": "2025-12-11T23:37:41.599200", "MEAN_MOTION": 14.42279969, "ECCENTRICITY": 0.00556944, "INCLINATION": 86.2122, "RA_OF_ASC_NODE": 332.863, "ARG_OF_PERICENTER": 96.2305, "MEAN_ANOMALY": 264.5244, "EPHEMERIS_TYPE": 0, "CLASSIFICATION_TYPE": "U", "NORAD_CAT_ID": 34145, "ELEMENT_SET_NO": 999, "REV_AT_EPOCH": 87627, "BSTAR": 0.0017354333, "MEAN_MOTION_DOT": 5.852e-05, "MEAN_MOTION_DDOT": 0}, "tle": {"line1": "1 34145U 97051DY  25345.98450925  .00005852  00000+0  17354-2 0  9991", "line2": "2 34145  86.2122 332.8630 0055694  96.2305 264.5244 14.42279969876279"}}, "geometry": {"type": "Point", "coordinates": [-31.74146239189149, -49.53525840238367]}}, {"type": "Feature", "properties": {"norad_id": 34146, "name": "IRIDIUM 33 DEB", "group": "iridium-33-debris", "lat": -61.2900476103203, "lon": -16.829412827328127, "alt_km": 731.4204307051868, "timestamp": "2025-12-12T07:43:20.900214+00:00", "meta": {"OBJECT_NAME": "IRIDIUM 33 DEB", "OBJECT_ID": "1997-051DZ", "EPOCH": "2025-12-11T23:59:18.754368", "MEAN_MOTION": 14.49040748, "ECCENTRICITY": 0.00254271, "INCLINATION": 86.284, "RA_OF_ASC_NODE": 350.1275, "ARG_OF_PERICENTER": 224.2485, "MEAN_ANOMALY": 194.0777, "EPHEMERIS_TYPE": 0, "CLASSIFICATION_TYPE": "U", "NORAD_CAT_ID": 34146, "ELEMENT_SET_NO": 999, "REV_AT_EPOCH": 88096, "BSTAR": 0.001480679, "MEAN_MOTION_DOT": 5.661e-05, "MEAN_MOTION_DDOT": 0}, "tle": {"line1": "1 34146U 97051DZ  25345.99952262  .00005661  00000+0  14807-2 0  9992", "line2": "2 34146  86.2840 350.1275 0025427 224.2485 194.0777 14.49040748880965"}}, "geometry": {"type": "Point", "coordinates": [-16.829412827328127, -61.2900476103203]}}, {"type": "Feature", "properties": {"norad_id": 34159, "name": "IRIDIUM 33 DEB", "group": "iridium-33-debris", "lat": 29.096745571678294, "lon": 50.455002490586004, "alt_km": 765.2686373045008, "timestamp": "2025-12-12T07:43:20.900226+00:00", "meta": {"OBJECT_NAME": "IRIDIUM 33 DEB", "OBJECT_ID": "1997-051EN", "EPOCH": "2025-12-11T14:53:33.595008", "MEAN_MOTION": 14.38488957, "ECCENTRICITY": 0.0025992, "INCLINATION": 86.3509, "RA_OF_ASC_NODE": 48.7186, "ARG_OF_PERICENTER": 291.8319, "MEAN_ANOMALY": 68.0115, "EPHEMERIS_TYPE": 0, "CLASSIFICATION_TYPE": "U", "NORAD_CAT_ID": 34159, "ELEMENT_SET_NO": 999, "REV_AT_EPOCH": 87943, "BSTAR": 0.00059374897, "MEAN_MOTION_DOT": 1.839e-05, "MEAN_MOTION_DDOT": 0}, "tle": {"line1": "1 34159U 97051EN  25345.62052772  .00001839  00000+0  59375-3 0  9996", "line2": "2 34159  86.3509  48.7186 0025992 291.8319  68.0115 14.38488957879438"}}, "geometry": {"type": "Point", "coordinates": [50.455002490586004, 29.096745571678294]}}, {"type": "Feature", "properties": {"norad_id": 34350, "name": "IRIDIUM 33 DEB", "group": "iridium-33-debris", "lat": 46.93676039849852, "lon": 6.929307101258181, "alt_km": 736.4737510266114, "timestamp": "2025-12-12T07:43:20.900236+00:00", "meta": {"OBJECT_NAME": "IRIDIUM 33 DEB", "OBJECT_ID": "1997-051ES", "EPOCH": "2025-12-12T01:07:32.542752", "MEAN_MOTION": 14.45384473, "ECCENTRICITY": 0.00227739, "INCLINATION": 86.3275, "RA_OF_ASC_NODE": 3.1079, "ARG_OF_PERICENTER": 137.3391, "MEAN_ANOMALY": 280.7434, "EPHEMERIS_TYPE": 0, "CLASSIFICATION_TYPE": "U", "NORAD_CAT_ID": 34350, "ELEMENT_SET_NO": 999, "REV_AT_EPOCH": 88283, "BSTAR": 0.00047566967, "MEAN_MOTION_DOT": 1.697e-05, "MEAN_MOTION_DDOT": 0}, "tle": {"line1": "1 34350U 97051ES  25346.04690443  .00001697  00000+0  47567-3 0  9991", "line2": "2 34350  86.3275   3.1079 0022773 137.3391 280.7434 14.45384473882836"}}, "geometry": {"type": "Point", "coordinates": [6.929307101258181, 46.93676039849852]}}, {"type": "Feature", "properties": {"norad_id": 34366, "name": "IRIDIUM 33 DEB", "group": "iridium-33-debris", "lat": 2.0213799797540797, "lon": 49.62328839899727, "alt_km": 727.1206225459409, "timestamp": "2025-12-12T07:43:20.900246+00:00", "meta": {"OBJECT_NAME": "IRIDIUM 33 DEB", "OBJECT_ID": "1997-051FJ", "EPOCH": "2025-12-11T05:33:55.951776", "MEAN_MOTION": 14.54036307, "ECCENTRICITY": 0.00222951, "INCLINATION": 86.3694, "RA_OF_ASC_NODE": 49.9688, "ARG_OF_PERICENTER": 144.5199, "MEAN_ANOMALY": 276.4662, "EPHEMERIS_TYPE": 0, "CLASSIFICATION_TYPE": "U", "NORAD_CAT_ID": 34366, "ELEMENT_SET_NO": 999, "REV_AT_EPOCH": 88160, "BSTAR": 0.0016787671, "MEAN_MOTION_DOT": 7.125e-05, "MEAN_MOTION_DDOT": 0}, "tle": {"line1": "1 34366U 97051FJ  25345.23189759  .00007125  00000+0  16788-2 0  9993", "line2": "2 34366  86.3694  49.9688 0022295 144.5199 276.4662 14.54036307881606"}}, "geometry": {"type": "Point", "coordinates": [49.62328839899727, 2.0213799797540797]}}]}